ONEWEB-0522             
1 54140U 22138AD  26170.79607254  .00000078  00000+0  16215-3 0  9998
2 54140  87.9183 304.4372 0001714 100.2523 259.8803 13.19725052177152
ONEWEB-0523             
1 54141U 22138AE  26170.75656794 -.00000005  00000+0 -43797-4 0  9996
2 54141  87.9199 273.9283 0002789  96.4901 263.6550 13.20770986179646
ONEWEB-0524             
1 54142U 22138AF  26170.74646953  .00000030  00000+0  42774-4 0  9992
2 54142  87.9197 273.9274 0002700 113.9849 246.1567 13.20771736179642
ONEWEB-0525             
1 54143U 22138AG  26170.81501714 -.00000117  00000+0 -32524-3 0  9995
2 54143  87.9182 304.4411 0001571 109.2107 250.9196 13.19725454177171
ONEWEB-0526             
1 54144U 22138AH  26170.77237076  .00000026  00000+0  32277-4 0  9991
2 54144  87.9186 304.4500 0001834 103.8155 256.3182 13.19726262177140
ONEWEB-0529             
1 54145U 22138AJ  26170.77553457  .00000061  00000+0  12083-3 0  9997
2 54145  87.9176 304.4580 0001677 104.6844 255.4475 13.19724889177167
ONEWEB-0531             
1 54146U 22138AK  26170.73300745 -.00000016  00000+0 -70398-4 0  9990
2 54146  87.9195 273.9277 0002864 101.4574 258.6881 13.20772099179645
ONEWEB-0535             
1 54147U 22138AL  26170.80869924  .00000020  00000+0  16658-4 0  9990
2 54147  87.9181 304.4361 0002155  94.6509 265.4870 13.19725303177184
ONEWEB-0536             
1 54148U 22138AM  26170.56801843  .00000021  00000+0  20283-4 0  9990
2 54148  87.9185 273.9828 0002983 104.8162 255.3302 13.20771574179616
ONEWEB-0527             
1 54642U 22166A   26170.75030814  .00000071  00000+0  14117-3 0  9996
2 54642  87.9250 243.4873 0001979 100.2440 259.8917 13.21823478171876
ONEWEB-0528             
1 54643U 22166B   26170.75114795  .00000051  00000+0  90974-4 0  9992
2 54643  87.9252 243.4893 0001888 104.0960 256.0384 13.21824594171887
ONEWEB-0539             
1 54644U 22166C   26170.63761350  .00000050  00000+0  88410-4 0  9996
2 54644  87.9260 243.4839 0001922  93.0418 267.0936 13.21827150171865
ONEWEB-0540             
1 54645U 22166D   26170.72017129  .00000102  00000+0  21447-3 0  9999
2 54645  87.9253 243.4976 0002002  95.1795 264.9567 13.21827698171864
ONEWEB-0542             
1 54646U 22166E   26170.64769764 -.00000109  00000+0 -29461-3 0  9993
2 54646  87.9262 243.4806 0001914  90.1593 269.9760 13.21825973171863
ONEWEB-0545             
1 54647U 22166F   26170.76377542 -.00009765  00000+0 -23682-1 0  9990
2 54647  87.9253 243.4695 0002075  75.8734 284.2630 13.21877927171846
ONEWEB-0580             
1 54648U 22166G   26170.73852502  .00000033  00000+0  47915-4 0  9997
2 54648  87.9253 243.4740 0002171  88.0165 272.1218 13.21827612171887
ONEWEB-0582             
1 54649U 22166H   26170.70490094  .00000091  00000+0  18859-3 0  9997
2 54649  87.9253 243.4732 0002098  86.6096 273.5278 13.21827086171857
ONEWEB-0583             
1 54650U 22166J   26170.64097039 -.00000116  00000+0 -31189-3 0  9995
2 54650  87.9252 243.5093 0001996  95.6531 264.4831 13.21825409171850
ONEWEB-0584             
1 54651U 22166K   26170.73685641  .00000125  00000+0  27000-3 0  9993
2 54651  87.9247 243.4757 0002075  95.0757 265.0614 13.21825864171855
ONEWEB-0585             
1 54652U 22166L   26170.76041445  .00000053  00000+0  96719-4 0  9999
2 54652  87.9255 243.4582 0002022 103.4435 256.6924 13.21826549171862
ONEWEB-0586             
1 54653U 22166M   26170.69816543  .00000173  00000+0  38759-3 0  9993
2 54653  87.9255 243.4959 0001952  93.7800 266.3557 13.21824616171851
ONEWEB-0587             
1 54654U 22166N   26170.70825811  .00000066  00000+0  12937-3 0  9995
2 54654  87.9265 243.4675 0002078 107.9989 252.1372 13.21824717172013
ONEWEB-0589             
1 54655U 22166P   26170.69480272  .00000100  00000+0  21052-3 0  9999
2 54655  87.9250 243.4822 0002308  76.8532 283.2859 13.21824386171876
ONEWEB-0590             
1 54656U 22166Q   26170.71989752  .00000032  00000+0  45519-4 0  9999
2 54656  87.9261 243.4677 0002494  98.5749 261.5667 13.21827835171861
ONEWEB-0591             
1 54657U 22166R   26170.73182026  .00000019  00000+0  13378-4 0  9994
2 54657  87.9251 243.4798 0002087  98.0932 262.0439 13.21826650171892
ONEWEB-0592             
1 54658U 22166S   26170.73516796  .00000031  00000+0  43251-4 0  9997
2 54658  87.9261 243.4575 0002019  98.3043 261.8320 13.21827582171776
ONEWEB-0593             
1 54659U 22166T   26170.68133981  .00000099  00000+0  20772-3 0  9999
2 54659  87.9254 243.4798 0001896  95.2607 264.8743 13.21824549171873
ONEWEB-0594             
1 54660U 22166U   26170.70153452  .00000110  00000+0  23587-3 0  9990
2 54660  87.9252 243.4919 0001908 103.1127 257.0220 13.21828046171890
ONEWEB-0595             
1 54661U 22166V   26170.75367074 -.00000106  00000+0 -28820-3 0  9995
2 54661  87.9260 243.4624 0002137 104.7996 255.3375 13.21826416171878
ONEWEB-0596             
1 54662U 22166W   26170.65275318  .00000057  00000+0  10739-3 0  9997
2 54662  87.9254 243.4939 0002060 101.2969 258.8397 13.21827042171865
